0 FENGYUN 1C DEB
1 37460U 99025EJE 13281.59323155  .00002142  00000-0  10508-2 0  2722
2 37460 098.5592 191.7775 0087443 017.4732 100.5406 14.16798537192714
0 FENGYUN 1C DEB
1 37460U 99025EJE 13283.57168061  .00002241  00000-0  10983-2 0  2733
2 37460 098.5596 193.6819 0087346 011.8863 111.4909 14.16814181192996
0 FENGYUN 1C DEB
1 37460U 99025EJE 13285.54906543  .00002427  00000-0  11874-2 0  2744
2 37460 098.5592 195.5847 0087333 006.2003 117.2164 14.16820267193275
0 FENGYUN 1C DEB
1 37460U 99025EJE 13286.94930909  .00002914  00000-0  14218-2 0  2759
2 37460 098.5597 196.9325 0087263 002.2450 059.1774 14.16825529193479
0 FENGYUN 1C DEB
1 37460U 99025EJE 13288.99754868  .00003754  00000-0  18251-2 0  2769
2 37460 098.5600 198.9041 0087099 356.4427 066.3301 14.16840513193764
0 FENGYUN 1C DEB
1 37460U 99025EJE 13290.56245433  .00003228  00000-0  15723-2 0  2776
2 37460 098.5599 200.4105 0086980 352.0292 128.2598 14.16851385193980
0 FENGYUN 1C DEB
1 37460U 99025EJE 13292.54039529  .00003340  00000-0  16261-2 0  2787
2 37460 098.5596 202.3148 0086812 346.4084 137.0434 14.16861461194260
0 FENGYUN 1C DEB
1 37460U 99025EJE 13294.99863664  .00004027  00000-0  19559-2 0  2790
2 37460 098.5592 204.6817 0086604 339.4037 075.8021 14.16875162194616
